ONEWEB-0559             
1 56060U 23043Q   24318.61304008  .00000691  00000+0  16414-2 0  9992
2 56060  87.9321 359.6296 0002314  87.3979 272.7420 13.21834600 81553
ONEWEB-0566             
1 56061U 23043R   24318.60673740  .00000124  00000+0  26965-3 0  9998
2 56061  87.9322 359.6308 0001935  77.5370 282.5980 13.21828273 81530
ONEWEB-0568             
1 56062U 23043S   24318.54615972  .00000037  00000+0  63086-4 0  9994
2 56062  87.9099 344.4385 0001650 100.6901 259.4416 13.16596587 82577
ONEWEB-0574             
1 56063U 23043T   24318.60043808  .00000069  00000+0  13439-3 0  9996
2 56063  87.9321 359.6238 0001736  97.1518 262.9813 13.21826313 81578
ONEWEB-0575             
1 56064U 23043U   24318.53982299  .00000069  00000+0  14716-3 0  9994
2 56064  87.9101 344.4507 0002140 107.1027 253.0338 13.16596909 82565
ONEWEB-0576             
1 56065U 23043V   24318.59681161  .00000918  00000+0  23668-2 0  9993
2 56065  87.9094 344.4335 0002449  98.1706 261.9702 13.16588085 83471
ONEWEB-0577             
1 56066U 23043W   24318.60316074  .00000159  00000+0  38207-3 0  9997
2 56066  87.9094 344.4320 0002360 109.3405 250.7981 13.16596107 82590
